IRIDIUM 64 [+]          
1 25287U 98021C   17229.48310803 -.00000015  00000-0 -12482-4 0  9991
2 25287  86.3985 198.3280 0002313  78.9876 281.1580 14.34213652 13785
IRIDIUM 65 [+]          
1 25288U 98021D   17229.48943345 -.00000008  00000-0 -99639-5 0  9997
2 25288  86.3983 198.2277 0002304  86.5640 273.5820 14.34214139 13809
IRIDIUM 66 [+]          
1 25289U 98021E   17229.49579205 -.00000005  00000-0 -89042-5 0  9993
2 25289  86.3983 198.1279 0002185  85.2335 274.9110 14.34213709 13792
IRIDIUM 67 [+]          
1 25290U 98021F   17229.50213703  .00000026  00000-0  21332-5 0  9994
2 25290  86.3983 198.2624 0002288  87.2712 272.8745 14.34213786 13813
IRIDIUM 68 [+]          
1 25291U 98021G   17229.50847739 -.00000019  00000-0 -13792-4 0  9991
2 25291  86.3985 198.3795 0002270  82.6250 277.5203 14.34213503 13798
IRIDIUM 69 [-]          
1 25319U 98026A   17229.52647468  .00000142  00000-0  39698-4 0  9994
2 25319  86.3987 219.9025 0004100  82.4294 277.7370 14.38683513 11855
IRIDIUM 71 [-]          
1 25320U 98026B   17229.56863159  .00000096  00000-0  24437-4 0  9990
2 25320  86.3974 215.7469 0003873 114.6867 245.4735 14.39095843 12299
IRIDIUM 70 [+]          
1 25342U 98032A   17229.56016019 -.00000021  00000-0 -14546-4 0  9996
2 25342  86.3989 198.6028 0002184  86.5355  49.4720 14.34213601  7897
IRIDIUM 72 [+]          
1 25343U 98032B   17229.52117750 -.00000003  00000-0 -80854-5 0  9993
2 25343  86.3984 198.2271 0002216  84.3627 275.7822 14.34213326  7894
IRIDIUM 73 [-]          
1 25344U 98032C   17229.46410995  .00000117  00000-0  25513-4 0  9998
2 25344  86.4471 177.0622 0001965 101.0542 259.0883 14.49051563 16425
IRIDIUM 75 [+]          
1 25346U 98032E   17229.52750876 -.00000017  00000-0 -13204-4 0  9997
2 25346  86.3987 198.4787 0002209  83.6443 276.5004 14.34213526  8461
IRIDIUM 3 [+]           
1 25431U 98048A   17229.60846340 -.00000063  00000-0 -29693-4 0  9990
2 25431  86.3945 230.0179 0002253  90.5071  48.2255 14.34216190994412
IRIDIUM 76 [+]          
1 25432U 98048B   17229.53090263  .00000010  00000-0 -34509-5 0  9992
2 25432  86.3942 229.8026 0001979  88.9732 271.1690 14.34214938994380
IRIDIUM 82 [-]          
1 25467U 98051A   17229.48442985  .00001441  00000-0  10755-3 0  9993
2 25467  86.4038 352.5511 0183485 171.9345 188.4907 14.89330316995970
IRIDIUM 81 [+]          
1 25468U 98051B   17229.45359796  .00000121  00000-0  32950-4 0  9994
2 25468  86.4265 356.1861 0001843  90.8123 269.3286 14.38612943991654
IRIDIUM 80 [+]          
1 25469U 98051C   17229.57333925  .00000124  00000-0  37338-4 0  9992
2 25469  86.3995 356.4235 0002875  88.2827 321.0192 14.34214057991630
IRIDIUM 77 [+]          
1 25471U 98051E   17229.62359750  .00000132  00000-0  36517-4 0  9992
2 25471  86.4254 355.9581 0002172 104.9500  22.0734 14.38608997996880
IRIDIUM 2 [-]           
1 25527U 98066A   17229.48549524  .00001220  00000-0  60450-4 0  9996
2 25527  85.5325 356.0610 0007712 212.8366 147.2395 15.16654388 27161
IRIDIUM 86 [+]          
1 25528U 98066B   17229.64903761  .00000163  00000-0  51195-4 0  9993
2 25528  86.3983 324.1013 0002339  99.7068 260.4392 14.34218142988170
IRIDIUM 84 [+]          
1 25530U 98066D   17229.40167536  .00000196  00000-0  62756-4 0  9993
2 25530  86.3986 324.3706 0002196  96.6066 263.5379 14.34218005985772
IRIDIUM 83 [+]          
1 25531U 98066E   17229.64269242  .00000166  00000-0  52210-4 0  9998
2 25531  86.3988 324.3977 0002235  94.0268 266.1184 14.34218014983169
IRIDIUM 20 [+]          
1 25577U 98074A   17229.49281222 -.00000045  00000-0 -23236-4 0  9996
2 25577  86.3942 229.7389 0002244  87.2553 272.8899 14.34216664977221
IRIDIUM 11 [+]          
1 25578U 98074B   17229.53532675 -.00000054  00000-0 -26429-4 0  9990
2 25578  86.3941 229.9222 0002333  85.9047  68.1196 14.34216126986196
IRIDIUM 14 [+]          
1 25777U 99032A   17229.47676105 -.00000008  00000-0 -10064-4 0  9993
2 25777  86.3986 198.3301 0002243  87.2275 272.9178 14.34214166963463
IRIDIUM 21 [+]          
1 25778U 99032B   17229.51482755 -.00000007  00000-0 -95137-5 0  9999
2 25778  86.3985 198.3322 0002079  81.3367 278.8064 14.34213546956901
IRIDIUM 91 [+]          
1 27372U 02005A   17229.64542965  .00000038  00000-0  66416-5 0  9999
2 27372  86.3933 261.4673 0002022 103.3815  11.9807 14.34222028820432
IRIDIUM 90 [S]          
1 27373U 02005B   17229.63193379  .00000170  00000-0  44926-4 0  9998
2 27373  86.4497 324.3892 0002293  99.4089 260.7371 14.42954885820217
IRIDIUM 94 [+]          
1 27374U 02005C   17229.54699601 -.00000085  00000-0 -37390-4 0  9992
2 27374  86.3942 230.0488 0001791 102.1561  13.9264 14.34215663824741
IRIDIUM 95 [+]          
1 27375U 02005D   17229.59138321 -.00000053  00000-0 -26067-4 0  9999
2 27375  86.3932 261.5109 0001293  97.1029 263.0314 14.34220839819715
IRIDIUM 96 [+]          
1 27376U 02005E   17229.63918715  .00000131  00000-0  39836-4 0  9991
2 27376  86.3987 293.5459 0001305  73.4832 286.6507 14.34222487824927
IRIDIUM 97 [+]          
1 27450U 02031A   17229.67724674  .00000112  00000-0  32869-4 0  9994
2 27450  86.3956 293.1843 0002368  88.3942 271.7525 14.34222014799041
IRIDIUM 98 [+]          
1 27451U 02031B   17229.50931281  .00000114  00000-0  33626-4 0  9995
2 27451  86.3988 356.5440 0002607 101.5033 304.7612 14.34213763800092
